COSMOS 1892             
1 18421U 87088A   20239.18402604  .00000660  00000-0  31513-4 0  9997
2 18421  82.5006 204.5255 0014950 177.4331 182.6982 15.17203130795344
SL-14 R/B               
1 18749U 88001B   20238.92712601  .00000053  00000-0  34891-5 0  9997
2 18749  82.5136 292.5368 0020243  71.0776 101.8829 14.83224922742166
COSMOS 1933             
1 18958U 88020A   20238.93150551  .00000152  00000-0  90041-5 0  9990
2 18958  82.5277  58.4982 0010053 276.3542  83.6539 15.03754081745529
SL-3 R/B                
1 19046U 88032B   20238.91175456  .00000028  00000-0  64784-5 0  9998
2 19046  97.4029 256.8939 0035762 333.3292  26.6093 15.02750316747399
SL-16 R/B               
1 19120U 88039B   20238.82320343 -.00000126  00000-0 -37072-4 0  9995
2 19120  71.0146  21.9406 0022893 206.0564 153.9411 14.19206951671492
COSMOS 1953             
1 19210U 88050A   20238.81360473 -.00000056  00000-0 -58297-5 0  9990
2 19210  82.5186 342.5001 0011543 236.7688 123.2433 15.06005642732104
SL-8 R/B                
1 19257U 88053B   20238.77694795  .00000129  00000-0  51733-4 0  9992
2 19257  74.0469 233.5160 0020827 199.0986 334.0309 14.37480441685969
COSMOS 1975             
1 19573U 88093A   20238.70612810  .00000690  00000-0  46684-4 0  9990
2 19573  82.5195 297.1007 0012708 289.8193  70.1663 15.04913204713925
SL-14 R/B               
1 19574U 88093B   20238.84038997  .00000052  00000-0  34797-5 0  9999
2 19574  82.5334 135.1755 0020352 230.8014 196.2658 14.83335297701156
SL-16 R/B               
1 19650U 88102B   20238.86581697 -.00000222  00000-0 -88565-4 0  9999
2 19650  70.9994  83.9495 0015517 216.5556 143.4509 14.15793105640707
INTERCOSMOS 24          
1 20261U 89080A   20238.87050232  .00000079  00000-0  23281-4 0  9994
2 20261  82.6099 335.3584 1201657 287.7202  59.6455 12.56126790412716
SL-14 R/B               
1 20262U 89080C   20239.11494160  .00000073  00000-0  12117-4 0  9995
2 20262  82.5952  29.2958 1237685 118.2875 254.8667 12.48945270407263
DELTA 2 R/B(1)          
1 20303U 89085B   20238.87899988  .00001082  00000-0  36807-4 0  9998
2 20303  35.6314 294.2574 0093823  73.4911 287.6101 15.27529811679227
DELTA 1 R/B             
1 20323U 89089B   20239.13456553  .00000030  00000-0  16992-4 0  9996
2 20323  97.0998  13.8436 0071996  13.0207 347.2827 14.48355790623486
ARIANE 40 R/B           
1 20443U 90005H   20238.88093322 -.00000002  00000-0  13907-4 0  9994
2 20443  98.5705 300.5728 0011362 132.6458 227.5688 14.38096706602095
DELTA 2 R/B(1)          
1 20453U 90008B   20239.11403091  .00000341  00000-0  22129-4 0  9994
2 20453  35.6234 205.5114 0280365 166.6209 194.2128 14.85644547621566
COSMOS 2058             
1 20465U 90010A   20239.05071808  .00000282  00000-0  21558-4 0  9999
2 20465  82.4895 206.3704 0014597 332.2947  27.7496 14.98034345659852
SL-14 R/B               
1 20466U 90010B   20239.04901951  .00000066  00000-0  53809-5 0  9995
2 20466  82.5057   1.6396 0022009 107.7210 252.6409 14.81390795650098
SL-14 R/B               
1 20511U 90018B   20238.77342972  .00000047  00000-0  31587-5 0  9993
2 20511  82.5240 308.5918 0016029 248.7639 251.0268 14.80046307644464
HST                     
1 20580U 90037B   20238.39756744  .00000398  00000-0  13185-4 0  9996
2 20580  28.4686 223.6532 0002955 112.1673  20.6070 15.09421067466394
SL-16 R/B               
1 20625U 90046B   20239.08359646 -.00000128  00000-0 -41510-4 0  9999
2 20625  70.9964 222.0461 0012892 143.7606 216.4392 14.14653070562717
COSMOS 2084             
1 20663U 90055A   20238.88376042 -.00000064  00000-0  11748-4 0  9995
2 20663  62.7947 296.3702 0030205 293.5105  66.2815 14.92105422633716
SL-6 R/B(2)             
1 20666U 90055D   20239.12564082 -.00000041  00000-0  14293-4 0  9992
2 20666  62.7849 211.8217 0055033 355.4312   4.6272 14.92355683635167
SL-8 R/B                
1 20775U 90078B   20238.92850010  .00002617  00000-0  12693-3 0  9995
2 20775  82.9293 169.3469 0572316 339.6242  18.2907 14.34603516515705
SL-8 R/B                
1 21088U 91006B   20239.13522492 -.00000074  00000-0 -90169-4 0  9991
2 21088  82.9400 233.4021 0021277 297.9725 131.2228 13.77144456486075
OKEAN-3                 
1 21397U 91039A   20238.75011214  .00000174  00000-0  14216-4 0  9990
2 21397  82.5210 110.8364 0016520 300.6917  59.2674 14.92949920562606
COSMOS 2151             
1 21422U 91042A   20238.93205148  .00000182  00000-0  15316-4 0  9995
2 21422  82.4996 216.7901 0014347   7.8706 352.2736 14.92149465561245
SL-14 R/B               
1 21423U 91042B   20238.70413845  .00000042  00000-0  24463-5 0  9995
2 21423  82.4952 312.1836 0018456  36.6167 323.6303 14.79796757553905
ERS-1                   
1 21574U 91050A   20239.14936074  .00000038  00000-0  27077-4 0  9992
2 21574  98.6025 192.5501 0034191  80.0150 280.4893 14.37754224525113
ARIANE 40 R/B           
1 21610U 91050F   20238.78758344 -.00000012  00000-0  97549-5 0  9999
2 21610  98.4606 307.3170 0004207  63.8030  44.5002 14.40911500527968
INTERCOSMOS 25          
1 21819U 91086A   20238.82231338 -.00000238  00000-0 -55895-4 0  9991
2 21819  82.5843  84.7896 1517022 124.2336 251.1952 12.05133801252642
SL-8 R/B                
1 21876U 92008B   20238.77521868  .00000022  00000-0  73361-5 0  9991
2 21876  82.9299 330.8990 0035175  22.5957  90.5886 13.75656823431402
SL-8 R/B                
1 21938U 92020B   20238.94114492 -.00000070  00000-0 -88531-4 0  9993
2 21938  82.9296 214.9687 0029208 176.8659 241.5062 13.75278396423225
COSMOS 2219             
1 22219U 92076A   20239.12814886 -.00000290  00000-0 -12860-3 0  9997
2 22219  71.0595 282.1652 0016465  40.8232 319.4120 14.13649030432989
SL-16 R/B               
1 22220U 92076B   20238.92318782 -.00000246  00000-0 -99444-4 0  9995
2 22220  71.0006 125.3485 0015062 292.8180 143.8125 14.16459428435512
COSMOS 2221             
1 22236U 92080A   20238.89237444  .00000130  00000-0  11384-4 0  9995
2 22236  82.5076  38.0330 0018240  91.3870 268.9437 14.87941592479600
SL-16 R/B               
1 22285U 92093B   20239.14274484 -.00000227  00000-0 -92579-4 0  9991
2 22285  71.0209 286.3162 0003587 186.0975 174.0104 14.15048403427478
COSMOS 2228             
1 22286U 92094A   20238.83437444  .00000134  00000-0  11764-4 0  9997
2 22286  82.5229 354.4115 0020453 206.9454 153.0703 14.88158874495839
SL-16 R/B               
1 22566U 93016B   20238.89036950 -.00000044  00000-0  20321-5 0  9997
2 22566  71.0089 139.9980 0009693 172.9240 187.2021 14.14968397416159
COSMOS 2242             
1 22626U 93024A   20238.88608179  .00000139  00000-0  12451-4 0  9998
2 22626  82.5228  22.5120 0018243 206.4781 153.5507 14.88015175479483
SL-16 R/B               
1 22803U 93059B   20238.66233115  .00000047  00000-0  47168-4 0  9994
2 22803  70.9914 313.4165 0015563  45.0930 315.1453 14.16826858393108
ARIANE 40 R/B           
1 22830U 93061H   20239.13214525 -.00000036  00000-0  33365-5 0  9998
2 22830  98.7593 288.9536 0011967 116.0379 244.2037 14.31454980405044
COSMOS 2278             
1 23087U 94023A   20238.86835933 -.00000133  00000-0 -45139-4 0  9993
2 23087  71.0540  82.5659 0010912 244.2185 115.7812 14.13816222359005
SL-16 R/B               
1 23088U 94023B   20238.76632558 -.00000252  00000-0 -10596-3 0  9991
2 23088  71.0013 355.6383 0002059 175.7066 184.4074 14.14690499360381
SL-16 R/B               
1 23343U 94074B   20239.16164858 -.00000014  00000-0  53120-5 0  9996
2 23343  97.9932 291.5233 0005555 290.3397 130.7869 14.76833509388913
SL-16 R/B               
1 23405U 94077B   20238.82417977  .00000042  00000-0  45995-4 0  9993
2 23405  70.9816 284.6052 0003631 315.9169  44.1664 14.15219020330175
ERS-2                   
1 23560U 95021A   20238.92863467  .00000540  00000-0  26581-4 0  9998
2 23560  98.5493  41.9658 0002308 309.1251  50.9777 15.23260261352691
ARIANE 40+ R/B          
1 23561U 95021B   20238.69692157  .00000003  00000-0  16029-4 0  9999
2 23561  98.7190 278.9323 0007805  55.2771  54.0108 14.37979674328743
SL-16 R/B               
1 23705U 95058B   20238.93010258 -.00000047  00000-0  55165-6 0  9997
2 23705  71.0223 103.1838 0014200 314.1874  45.8081 14.15140486281802
SL-16 R/B               
1 24298U 96051B   20239.12826672 -.00000078  00000-0 -15761-4 0  9997
2 24298  70.8434 123.6543 0018936 249.2078 110.7014 14.12498937236458
ORBVIEW 2 (SEASTAR)     
1 24883U 97037A   20238.91797590  .00000019  00000-0  22824-4 0  9995
2 24883  98.6170 351.8766 0001246 246.9400 113.1653 14.33566689218666
SL-16 R/B               
1 25400U 98043G   20238.85389988 -.00000014  00000-0  12390-4 0  9993
2 25400  98.6086 173.5101 0010749 128.6348 231.5796 14.25459475150905
SL-16 R/B               
1 25407U 98045B   20238.93193643 -.00000291  00000-0 -12369-3 0  9995
2 25407  71.0111 111.5957 0009384 237.5049 122.5168 14.15827714140914
ISS (ZARYA)             
1 25544U 98067A   20239.33761196  .00000797  00000-0  22467-4 0  9990
2 25544  51.6464   1.3022 0001695  60.5469 358.5199 15.49187877242899
SL-8 R/B                
1 25723U 99022C   20238.60055754  .00016348  00000-0  10493-3 0  9990
2 25723  48.4119 343.7993 0006505 317.9295  42.1159 15.76284238188564
CZ-4B R/B               
1 25732U 99025C   20238.87213406 -.00000029  00000-0  81918-5 0  9994
2 25732  98.9405 268.0729 0037569  14.3755 158.3050 14.17680101101659
OKEAN-O                 
1 25860U 99039A   20238.69487794  .00000018  00000-0  10243-4 0  9993
2 25860  98.2121 258.8905 0001545  69.2205 290.9169 14.76674212135737
SL-16 R/B               
1 25861U 99039B   20238.90005973  .00000005  00000-0  82689-5 0  9993
2 25861  98.2094 242.4296 0014422 297.2607 123.2682 14.78587848137882
DELTA 2 R/B             
1 25876U 99041E   20238.81950196 -.00000002  00000-0  39858-4 0  9995
2 25876  51.7661  36.4941 0531339 186.3341 173.0680 14.04446286 78372
